COSMOS 1892             
1 18421U 87088A   21222.54010203  .00000891  00000-0  42387-4 0  9997
2 18421  82.4985 218.5923 0016172  54.2852 305.9883 15.17747824848100
SL-14 R/B               
1 18749U 88001B   21222.54868228  .00000078  00000-0  66382-5 0  9993
2 18749  82.5167 324.8788 0018708   1.9512   8.5086 14.83269029793990
COSMOS 1933             
1 18958U 88020A   21222.31993946 -.00000133  00000-0 -11730-4 0  9997
2 18958  82.5275  81.0532 0012024 158.5379 201.6354 15.03968896798031
SL-3 R/B                
1 19046U 88032B   21222.53279932 -.00000581  00000-0 -38306-4 0  9990
2 19046  97.3867 230.5850 0035608 216.6054 143.2739 15.02975365799907
SL-16 R/B               
1 19120U 88039B   21222.48718501  .00000092  00000-0  66508-4 0  9994
2 19120  71.0165   3.0768 0021191  19.1314 341.0602 14.19225371721104
COSMOS 1953             
1 19210U 88050A   21222.46377676  .00000992  00000-0  65370-4 0  9994
2 19210  82.5175   2.9971 0014197 122.3757 237.8847 15.06332375784733
SL-8 R/B                
1 19257U 88053B   21222.52028697  .00000037  00000-0  20929-4 0  9992
2 19257  74.0500 310.3991 0020449 188.8200 182.4651 14.37527352736220
COSMOS 1975             
1 19573U 88093A   21222.54465179  .00000983  00000-0  66724-4 0  9992
2 19573  82.5218 318.1445 0014197 168.1696 191.9867 15.05234615766505
SL-14 R/B               
1 19574U 88093B   21222.35058399  .00000079  00000-0  66158-5 0  9992
2 19574  82.5338 168.3283 0022135 156.8382  12.2614 14.83379790752960
SL-16 R/B               
1 19650U 88102B   21222.45474244  .00000088  00000-0  68849-4 0  9998
2 19650  70.9997  68.8306 0013213  28.5949 331.5896 14.15810089690188
INTERCOSMOS 24          
1 20261U 89080A   21222.28524597 -.00000123  00000-0 -41573-4 0  9999
2 20261  82.6038 109.2397 1202096 201.2875 153.3887 12.56213737456586
SL-14 R/B               
1 20262U 89080C   21222.54220965  .00000111  00000-0  25806-4 0  9997
2 20262  82.5955 165.4906 1237904  41.5940 327.2910 12.48976350451300
DELTA 2 R/B(1)          
1 20303U 89085B   21222.51833899  .00002564  00000-0  79017-4 0  9998
2 20303  35.6425 253.9872 0090158 307.1228  52.1289 15.29586649732753
DELTA 1 R/B             
1 20323U 89089B   21222.21665379  .00000013  00000-0  12591-4 0  9998
2 20323  97.1219 308.1584 0071447 355.0960   4.9528 14.48411986653481
ARIANE 40 R/B           
1 20443U 90005H   21222.42818260  .00000032  00000-0  25149-4 0  9997
2 20443  98.5256 288.2946 0010733 168.0279 192.1165 14.38137906652332
DELTA 2 R/B(1)          
1 20453U 90008B   21222.52297312  .00001939  00000-0  10743-3 0  9991
2 20453  35.6256 303.1330 0276652 206.3016 152.3417 14.86728646673575
COSMOS 2058             
1 20465U 90010A   21222.43503193  .00000329  00000-0  25370-4 0  9999
2 20465  82.4870 230.0997 0014197 224.1425 135.8666 14.98249848691053
SL-14 R/B               
1 20466U 90010B   21222.52584308  .00000058  00000-0  43298-5 0  9996
2 20466  82.5021  34.5701 0021557  44.0235 316.2691 14.81432842680779
SL-14 R/B               
1 20511U 90018B   21222.41810924  .00000070  00000-0  61554-5 0  9998
2 20511  82.5256 342.9271 0017459 178.8581 244.5698 14.80087117675082
HST                     
1 20580U 90037B   21222.27544762  .00000518  00000-0  20356-4 0  9994
2 20580  28.4705  68.9395 0002532 283.6515 239.8559 15.09701013519154
SL-16 R/B               
1 20625U 90046B   21222.38717971 -.00000336  00000-0 -14986-3 0  9991
2 20625  70.9970 208.8611 0015881 318.4560  41.5355 14.14669467611868
COSMOS 2084             
1 20663U 90055A   21222.35938362  .00000086  00000-0  26230-4 0  9995
2 20663  62.7925 209.2865 0078329  14.3722 345.9574 14.92281390685869
SL-6 R/B(2)             
1 20666U 90055D   21222.47623809  .00000115  00000-0  28170-4 0  9996
2 20666  62.7848 124.2615 0104963  40.8535 320.0366 14.92535007687834
SL-8 R/B                
1 20775U 90078B   21222.46453851  .00002651  00000-0  12774-3 0  9998
2 20775  82.9231 240.6498 0565272 335.1978  22.2963 14.36207126565848
SL-8 R/B                
1 21088U 91006B   21222.59143780  .00000053  00000-0  37981-4 0  9991
2 21088  82.9454 333.5941 0023363  40.6459 329.9577 13.77175166533902
OKEAN-3                 
1 21397U 91039A   21222.52296340  .00000225  00000-0  19054-4 0  9996
2 21397  82.5234 138.3055 0016955 202.4459 157.6021 14.93136412614776
COSMOS 2151             
1 21422U 91042A   21222.49600461  .00000181  00000-0  15258-4 0  9991
2 21422  82.4981 243.9398 0012517 273.3397  86.6391 14.92280791613302
SL-14 R/B               
1 21423U 91042B   21222.42202704  .00000063  00000-0  52780-5 0  9994
2 21423  82.4964 345.3157 0016772 331.1546  28.8738 14.79836404605622
ERS-1                   
1 21574U 91050A   21222.49886096  .00000015  00000-0  19679-4 0  9995
2 21574  98.6512 183.3512 0033944 120.2546 240.2007 14.37808459575335
ARIANE 40 R/B           
1 21610U 91050F   21222.46747537  .00000018  00000-0  19062-4 0  9998
2 21610  98.4207 292.4050 0004461  85.8173 289.0404 14.40958771578048
INTERCOSMOS 25          
1 21819U 91086A   21222.48128637  .00000286  00000-0  49357-4 0  9991
2 21819  82.5779 235.1679 1517226  98.9748 278.5530 12.05271438294764
SL-8 R/B                
1 21876U 92008B   21222.34121559 -.00000004  00000-0 -20551-4 0  9995
2 21876  82.9240  71.0789 0035856 123.2273  49.2616 13.75683690479466
SL-8 R/B                
1 21938U 92020B   21222.51013451  .00000041  00000-0  27469-4 0  9992
2 21938  82.9324 315.4466 0027842 284.9294  85.0761 13.75292219471272
COSMOS 2219             
1 22219U 92076A   21222.46962779  .00000216  00000-0  13917-3 0  9992
2 22219  71.0579 272.3808 0019839 237.1783 122.7429 14.13658948482020
SL-16 R/B               
1 22220U 92076B   21222.43722353 -.00000250  00000-0 -10147-3 0  9995
2 22220  71.0005 109.5924 0010989 130.3192  42.8842 14.16473060485006
COSMOS 2221             
1 22236U 92080A   21222.29980754  .00000181  00000-0  16999-4 0  9995
2 22236  82.5057  67.8456 0017046  16.5029 343.6740 14.88082413531556
SL-16 R/B               
1 22285U 92093B   21222.49164407 -.00000256  00000-0 -10775-3 0  9994
2 22285  71.0202 273.4025 0005614 315.1101  44.9567 14.15061561476589
COSMOS 2228             
1 22286U 92094A   21222.52630548  .00000200  00000-0  18842-4 0  9995
2 22286  82.5200  24.3643 0022344 126.6652 233.6624 14.88307238526771
SL-16 R/B               
1 22566U 93016B   21222.47197483  .00000116  00000-0  84467-4 0  9993
2 22566  71.0086 126.1872 0011140 337.0535  23.0088 14.14978020465603
COSMOS 2242             
1 22626U 93024A   21222.27665587  .00000194  00000-0  18219-4 0  9990
2 22626  82.5198  52.9045 0020088 127.2704 233.0350 14.88157318531123
SL-16 R/B               
1 22803U 93059B   21222.49057465 -.00000248  00000-0 -99557-4 0  9995
2 22803  70.9907 296.1718 0019258 241.6698 118.2484 14.16840024442653
ARIANE 40 R/B           
1 22830U 93061H   21222.41266154  .00000003  00000-0  18019-4 0  9998
2 22830  98.7098 280.1384 0011223 167.6777 192.4682 14.31487631454760
COSMOS 2278             
1 23087U 94023A   21222.31015981 -.00000148  00000-0 -53243-4 0  9991
2 23087  71.0544  72.1569 0007046  50.2175 309.9567 14.13837983408390
SL-16 R/B               
1 23088U 94023B   21222.48870703 -.00000140  00000-0 -47708-4 0  9992
2 23088  71.0026 341.5886 0005347 300.0052  60.0539 14.14695031409575
SL-16 R/B               
1 23343U 94074B   21222.41458010  .00000029  00000-0  11405-4 0  9997
2 23343  97.9421 276.2129 0005687 233.4774 137.5264 14.76893565440251
SL-16 R/B               
1 23405U 94077B   21222.48198999 -.00000271  00000-0 -11460-3 0  9994
2 23405  70.9814 269.3904 0003633 225.0560 135.0268 14.15240708379627
ERS-2                   
1 23560U 95021A   21222.49953110  .00000914  00000-0  41357-4 0  9992
2 23560  98.5430  80.1376 0003492 162.2318 197.9039 15.24101086405929
ARIANE 40+ R/B          
1 23561U 95021B   21222.38927693  .00000028  00000-0  24199-4 0  9999
2 23561  98.6707 272.7040 0008146  91.8538 278.6519 14.38039174378782
SL-16 R/B               
1 23705U 95058B   21222.32740027  .00000043  00000-0  46529-4 0  9995
2 23705  71.0214  90.0944 0011633 157.4247 202.7390 14.15147787331234
SL-16 R/B               
1 24298U 96051B   21222.40660183 -.00000154  00000-0 -57289-4 0  9990
2 24298  70.8268 107.1420 0013299  92.6151 267.6492 14.12427673285515
ORBVIEW 2 (SEASTAR)     
1 24883U 97037A   21222.58869429  .00000032  00000-0  27541-4 0  9999
2 24883  98.6481 340.6112 0001494 333.2924  26.8183 14.33626744268761
SL-16 R/B               
1 25400U 98043G   21222.55113370 -.00000014  00000-0  12345-4 0  9994
2 25400  98.6407 157.6060 0009643 187.7488 172.3544 14.25480155200729
SL-16 R/B               
1 25407U 98045B   21222.37104121 -.00000260  00000-0 -10788-3 0  9999
2 25407  71.0114  97.1783 0005839  40.5827 319.5730 14.15841656190379
ISS (ZARYA)             
1 25544U 98067A   21222.69063542  .00001113  00000-0  28427-4 0  9997
2 25544  51.6440  73.1940 0001274 281.9945 187.0295 15.48889857297045
CZ-4B R/B               
1 25732U 99025C   21222.33678267 -.00000017  00000-0  13243-4 0  9991
2 25732  98.8988 258.9040 0038438  95.9669 275.1043 14.17697354151173
OKEAN-O                 
1 25860U 99039A   21222.33039763  .00000034  00000-0  12485-4 0  9995
2 25860  98.1797 253.8066 0001182  67.3687 292.7647 14.76751681187338
SL-16 R/B               
1 25861U 99039B   21222.50821668  .00000019  00000-0  10118-4 0  9992
2 25861  98.2032 238.9221 0014327 250.4549 263.9763 14.78655161189548
DELTA 2 R/B             
1 25876U 99041E   21222.13330953  .00000053  00000-0  50544-4 0  9997
2 25876  51.7637  97.3167 0531743 125.2796 239.9078 14.04599248127461
HELIOS 1B               
1 25977U 99064A   21222.55672187  .00000027  00000-0  10577-4 0  9991
2 25977  98.3200  39.2135 0002529  82.6107 277.5392 14.82573020437213
